{
    "links": {
        "self": "http://www.neowsapp.com/rest/v1/neo/3743905?api_key=iIulBulltgU6a56xZRHN4H3l9WmuAYTsLGpBGhQ2"
    },
    "id": "3743905",
    "neo_reference_id": "3743905",
    "name": "(2016 CX246)",
    "designation": "2016 CX246",
    "nasa_jpl_url": "http://ssd.jpl.nasa.gov/sbdb.cgi?sstr=3743905",
    "absolute_magnitude_h": 25.5,
    "estimated_diameter": {
        "kilometers": {
            "estimated_diameter_min": 0.0211132445,
            "estimated_diameter_max": 0.0472106499
        },
        "meters": {
            "estimated_diameter_min": 21.113244479,
            "estimated_diameter_max": 47.2106498806
        },
        "miles": {
            "estimated_diameter_min": 0.0131191578,
            "estimated_diameter_max": 0.0293353287
        },
        "feet": {
            "estimated_diameter_min": 69.2691770164,
            "estimated_diameter_max": 154.8905885541
        }
    },
    "is_potentially_hazardous_asteroid": false,
    "close_approach_data": [
        {
            "close_approach_date": "1956-04-20",
            "close_approach_date_full": "1956-Apr-20 16:44",
            "epoch_date_close_approach": -432285360000,
            "relative_velocity": {
                "kilometers_per_second": "17.5301265353",
                "kilometers_per_hour": "63108.4555272125",
                "miles_per_hour": "39213.1400468949"
            },
            "miss_distance": {
                "astronomical": "0.3791164232",
                "lunar": "147.4762886248",
                "kilometers": "56715009.392738584",
                "miles": "35241072.6863930992"
            },
            "orbiting_body": "Earth"
        },
        {
            "close_approach_date": "2016-02-28",
            "close_approach_date_full": "2016-Feb-28 18:14",
            "epoch_date_close_approach": 1456683240000,
            "relative_velocity": {
                "kilometers_per_second": "6.2263622979",
                "kilometers_per_hour": "22414.9042725808",
                "miles_per_hour": "13927.74982426"
            },
            "miss_distance": {
                "astronomical": "0.0791369452",
                "lunar": "30.7842716828",
                "kilometers": "11838718.440226724",
                "miles": "7356238.5254438312"
            },
            "orbiting_body": "Earth"
        }
    ],
    "orbital_data": {
        "orbit_id": "10",
        "orbit_determination_date": "2017-04-06 08:28:14",
        "first_observation_date": "2016-02-13",
        "last_observation_date": "2016-03-05",
        "data_arc_in_days": 21,
        "observations_used": 45,
        "orbit_uncertainty": "7",
        "minimum_orbit_intersection": ".0778797",
        "jupiter_tisserand_invariant": "3.277",
        "epoch_osculation": "2459000.5",
        "eccentricity": ".5597164313908093",
        "semi_major_axis": "2.423995283399496",
        "inclination": "1.491213772224062",
        "ascending_node_longitude": "297.0461074949463",
        "orbital_period": "1378.466075802769",
        "perihelion_distance": "1.067245293666977",
        "perihelion_argument": "226.0441288187506",
        "aphelion_distance": "3.780745273132015",
        "perihelion_time": "2458827.199871387833",
        "mean_anomaly": "45.25903639960645",
        "mean_motion": ".2611598546524613",
        "equinox": "J2000",
        "orbit_class": {
            "orbit_class_type": "AMO",
            "orbit_class_description": "Near-Earth asteroid orbits similar to that of 1221 Amor",
            "orbit_class_range": "1.017 AU < q (perihelion) < 1.3 AU"
        }
    },
    "is_sentry_object": false
}